0 COSMOS 1290
1 12639U 81074D   13281.16905797  .00000009  00000-0  15556-3 0  2571
2 12639 074.0315 290.6811 0015387 341.5116 111.0331 12.52764299471475
0 COSMOS 1290
1 12639U 81074D   13283.50156345  .00000010  00000-0  16807-3 0  2581
2 12639 074.0314 287.5655 0015466 338.1243 190.3828 12.52764323471767
0 COSMOS 1290
1 12639U 81074D   13285.72500126 -.00000007  00000-0  58458-4 0  2594
2 12639 074.0313 284.5956 0015475 334.8066 137.9384 12.52764744472046
0 COSMOS 1290
1 12639U 81074D   13288.18675889 -.00000026  00000-0 -65520-4 0  2608
2 12639 074.0316 281.3071 0015531 331.2828 080.1533 12.52765023472352
0 COSMOS 1290
1 12639U 81074D   13290.43302324 -.00000025  00000-0 -57750-4 0  2616
2 12639 074.0320 278.3064 0015544 327.9244 130.6661 12.52764799472636
0 COSMOS 1290
1 12639U 81074D   13292.97991463  .00000003  00000-0  12132-3 0  2624
2 12639 074.0323 274.9045 0015570 324.2286 096.8755 12.52764589472954
0 COSMOS 1290
1 12639U 81074D   13295.13900086  .00000019  00000-0  22032-3 0  2634
2 12639 074.0323 272.0208 0015601 321.1104 114.1089 12.52764591473222
